{
  "type": "FeatureCollection",
  "features": [
    {
      "type": "Feature",
      "properties": {
        "norad_id": 34765,
        "name": "IRIDIUM 33 DEB",
        "group": "iridium-33-debris",
        "lat": 86.30437468907573,
        "lon": 132.90442007142238,
        "alt_km": 757.9382597031381,
        "timestamp": "2025-12-06T22:38:43.113717+00:00",
        "meta_object_name": "IRIDIUM 33 DEB",
        "meta_object_id": "1997-051LJ",
        "meta_epoch": "2025-12-06T14:30:03.375072",
        "meta_mean_motion": 14.40440942,
        "meta_eccentricity": 0.00148947,
        "meta_inclination": 86.3396,
        "meta_ra_of_asc_node": 35.3938,
        "meta_arg_of_pericenter": 233.6744,
        "meta_mean_anomaly": 258.3156,
        "meta_ephemeris_type": 0,
        "meta_classification_type": "U",
        "meta_norad_cat_id": 34765,
        "meta_element_set_no": 999,
        "meta_rev_at_epoch": 87525,
        "meta_bstar": 0.00076473215,
        "meta_mean_motion_dot": 2.451e-05,
        "meta_mean_motion_ddot": 0,
        "tle_line1": "1 34765U 97051LJ  25340.60420573  .00002451  00000+0  76473-3 0  9999",
        "tle_line2": "2 34765  86.3396  35.3938 0014894 233.6744 258.3156 14.40440942875257"
      },
      "geometry": {
        "type": "Point",
        "coordinates": [
          132.90442007142238,
          86.30437468907573
        ]
      }
    },
    {
      "type": "Feature",
      "properties": {
        "norad_id": 34833,
        "name": "IRIDIUM 33 DEB",
        "group": "iridium-33-debris",
        "lat": -51.733000663536366,
        "lon": 48.906040558642886,
        "alt_km": 740.170641302142,
        "timestamp": "2025-12-06T22:38:43.113727+00:00",
        "meta_object_name": "IRIDIUM 33 DEB",
        "meta_object_id": "1997-051MH",
        "meta_epoch": "2025-12-06T11:24:24.044256",
        "meta_mean_motion": 14.52319151,
        "meta_eccentricity": 0.00217012,
        "meta_inclination": 86.3936,
        "meta_ra_of_asc_node": 53.6936,
        "meta_arg_of_pericenter": 117.7437,
        "meta_mean_anomaly": 263.768,
        "meta_ephemeris_type": 0,
        "meta_classification_type": "U",
        "meta_norad_cat_id": 34833,
        "meta_element_set_no": 999,
        "meta_rev_at_epoch": 87624,
        "meta_bstar": 0.001502325,
        "meta_mean_motion_dot": 6.148e-05,
        "meta_mean_motion_ddot": 0,
        "tle_line1": "1 34833U 97051MH  25340.47527829  .00006148  00000+0  15023-2 0  9992",
        "tle_line2": "2 34833  86.3936  53.6936 0021701 117.7437 263.7680 14.52319151876242"
      },
      "geometry": {
        "type": "Point",
        "coordinates": [
          48.906040558642886,
          -51.733000663536366
        ]
      }
    },
    {
      "type": "Feature",
      "properties": {
        "norad_id": 34870,
        "name": "IRIDIUM 33 DEB",
        "group": "iridium-33-debris",
        "lat": 39.45490187629408,
        "lon": 133.69407142833836,
        "alt_km": 633.5662544671459,
        "timestamp": "2025-12-06T22:38:43.113738+00:00",
        "meta_object_name": "IRIDIUM 33 DEB",
        "meta_object_id": "1997-051MQ",
        "meta_epoch": "2025-12-06T06:01:40.638720",
        "meta_mean_motion": 14.7623031,
        "meta_eccentricity": 0.00152329,
        "meta_inclination": 86.3104,
        "meta_ra_of_asc_node": 317.0553,
        "meta_arg_of_pericenter": 206.8225,
        "meta_mean_anomaly": 216.4192,
        "meta_ephemeris_type": 0,
        "meta_classification_type": "U",
        "meta_norad_cat_id": 34870,
        "meta_element_set_no": 999,
        "meta_rev_at_epoch": 88815,
        "meta_bstar": 0.002728719,
        "meta_mean_motion_dot": 0.00018975,
        "meta_mean_motion_ddot": 0,
        "tle_line1": "1 34870U 97051MQ  25340.25116480  .00018975  00000+0  27287-2 0  9992",
        "tle_line2": "2 34870  86.3104 317.0553 0015232 206.8225 216.4192 14.76230310888150"
      },
      "geometry": {
        "type": "Point",
        "coordinates": [
          133.69407142833836,
          39.45490187629408
        ]
      }
    },
    {
      "type": "Feature",
      "properties": {
        "norad_id": 34896,
        "name": "IRIDIUM 33 DEB",
        "group": "iridium-33-debris",
        "lat": -12.115770813423676,
        "lon": 150.07501182219937,
        "alt_km": 665.7643432422738,
        "timestamp": "2025-12-06T22:38:43.113748+00:00",
        "meta_object_name": "IRIDIUM 33 DEB",
        "meta_object_id": "1997-051MY",
        "meta_epoch": "2025-12-05T17:05:39.506784",
        "meta_mean_motion": 14.66165825,
        "meta_eccentricity": 0.00238087,
        "meta_inclination": 86.3279,
        "meta_ra_of_asc_node": 329.8372,
        "meta_arg_of_pericenter": 240.6117,
        "meta_mean_anomaly": 296.7708,
        "meta_ephemeris_type": 0,
        "meta_classification_type": "U",
        "meta_norad_cat_id": 34896,
        "meta_element_set_no": 999,
        "meta_rev_at_epoch": 87516,
        "meta_bstar": 0.001793551,
        "meta_mean_motion_dot": 9.929e-05,
        "meta_mean_motion_ddot": 0,
        "tle_line1": "1 34896U 97051MY  25339.71226281  .00009929  00000+0  17936-2 0  9999",
        "tle_line2": "2 34896  86.3279 329.8372 0023808 240.6117 296.7708 14.66165825875163"
      },
      "geometry": {
        "type": "Point",
        "coordinates": [
          150.07501182219937,
          -12.115770813423676
        ]
      }
    },
    {
      "type": "Feature",
      "properties": {
        "norad_id": 34926,
        "name": "IRIDIUM 33 DEB",
        "group": "iridium-33-debris",
        "lat": 11.090448925710842,
        "lon": -169.79954719702621,
        "alt_km": 757.678305920922,
        "timestamp": "2025-12-06T22:38:43.113759+00:00",
        "meta_object_name": "IRIDIUM 33 DEB",
        "meta_object_id": "1997-051NF",
        "meta_epoch": "2025-12-06T08:44:20.931360",
        "meta_mean_motion": 14.53974981,
        "meta_eccentricity": 0.00764834,
        "meta_inclination": 86.1314,
        "meta_ra_of_asc_node": 11.2289,
        "meta_arg_of_pericenter": 314.5248,
        "meta_mean_anomaly": 63.7785,
        "meta_ephemeris_type": 0,
        "meta_classification_type": "U",
        "meta_norad_cat_id": 34926,
        "meta_element_set_no": 999,
        "meta_rev_at_epoch": 86364,
        "meta_bstar": 0.0093250952,
        "meta_mean_motion_dot": 0.00041051,
        "meta_mean_motion_ddot": 0,
        "tle_line1": "1 34926U 97051NF  25340.36413115  .00041051  00000+0  93251-2 0  9996",
        "tle_line2": "2 34926  86.1314  11.2289 0076483 314.5248  63.7785 14.53974981863641"
      },
      "geometry": {
        "type": "Point",
        "coordinates": [
          -169.79954719702621,
          11.090448925710842
        ]
      }
    },
    {
      "type": "Feature",
      "properties": {
        "norad_id": 34985,
        "name": "IRIDIUM 33 DEB",
        "group": "iridium-33-debris",
        "lat": -8.765176559110571,
        "lon": -120.0867224244423,
        "alt_km": 747.1164074314111,
        "timestamp": "2025-12-06T22:38:43.113769+00:00",
        "meta_object_name": "IRIDIUM 33 DEB",
        "meta_object_id": "1997-051NR",
        "meta_epoch": "2025-12-06T11:52:01.102944",
        "meta_mean_motion": 14.41968492,
        "meta_eccentricity": 0.00201435,
        "meta_inclination": 86.3705,
        "meta_ra_of_asc_node": 59.544,
        "meta_arg_of_pericenter": 241.43,
        "meta_mean_anomaly": 137.5894,
        "meta_ephemeris_type": 0,
        "meta_classification_type": "U",
        "meta_norad_cat_id": 34985,
        "meta_element_set_no": 999,
        "meta_rev_at_epoch": 87085,
        "meta_bstar": 0.0014027,
        "meta_mean_motion_dot": 4.627e-05,
        "meta_mean_motion_ddot": 0,
        "tle_line1": "1 34985U 97051NR  25340.49445721  .00004627  00000+0  14027-2 0  9995",
        "tle_line2": "2 34985  86.3705  59.5440 0020143 241.4300 137.5894 14.41968492870854"
      },
      "geometry": {
        "type": "Point",
        "coordinates": [
          -120.0867224244423,
          -8.765176559110571
        ]
      }
    },
    {
      "type": "Feature",
      "properties": {
        "norad_id": 35051,
        "name": "IRIDIUM 33 DEB",
        "group": "iridium-33-debris",
        "lat": 4.917590767205138,
        "lon": 11.705130091134581,
        "alt_km": 737.4556949537928,
        "timestamp": "2025-12-06T22:38:43.113780+00:00",
        "meta_object_name": "IRIDIUM 33 DEB",
        "meta_object_id": "1997-051NX",
        "meta_epoch": "2025-12-05T08:27:53.565120",
        "meta_mean_motion": 14.47546386,
        "meta_eccentricity": 0.00106363,
        "meta_inclination": 86.3242,
        "meta_ra_of_asc_node": 12.0813,
        "meta_arg_of_pericenter": 111.2483,
        "meta_mean_anomaly": 248.9857,
        "meta_ephemeris_type": 0,
        "meta_classification_type": "U",
        "meta_norad_cat_id": 35051,
        "meta_element_set_no": 999,
        "meta_rev_at_epoch": 86889,
        "meta_bstar": 0.0012192117,
        "meta_mean_motion_dot": 4.506e-05,
        "meta_mean_motion_ddot": 0,
        "tle_line1": "1 35051U 97051NX  25339.35270330  .00004506  00000+0  12192-2 0  9992",
        "tle_line2": "2 35051  86.3242  12.0813 0010636 111.2483 248.9857 14.47546386868892"
      },
      "geometry": {
        "type": "Point",
        "coordinates": [
          11.705130091134581,
          4.917590767205138
        ]
      }
    }
  ]
}